[{"OBJECT_NAME":"OBJECT R","OBJECT_ID":"2023-091R","EPOCH":"2026-03-09T23:14:08.723328","MEAN_MOTION":15.13803604,"ECCENTRICITY":0.00168604,"INCLINATION":97.5196,"RA_OF_ASC_NODE":124.2169,"ARG_OF_PERICENTER":118.5914,"MEAN_ANOMALY":241.7016,"EPHEMERIS_TYPE":0,"CLASSIFICATION_TYPE":"U","NORAD_CAT_ID":57181,"ELEMENT_SET_NO":999,"REV_AT_EPOCH":14867,"BSTAR":0.00029975355,"MEAN_MOTION_DOT":5.364e-5,"MEAN_MOTION_DDOT":0},{"OBJECT_NAME":"SCS-01 A","OBJECT_ID":"2025-100A","EPOCH":"2026-03-09T23:34:52.624992","MEAN_MOTION":15.20882651,"ECCENTRICITY":0.0023898,"INCLINATION":97.374,"RA_OF_ASC_NODE":143.9086,"ARG_OF_PERICENTER":335.0117,"MEAN_ANOMALY":24.996,"EPHEMERIS_TYPE":0,"CLASSIFICATION_TYPE":"U","NORAD_CAT_ID":63982,"ELEMENT_SET_NO":999,"REV_AT_EPOCH":4556,"BSTAR":0.000529729,"MEAN_MOTION_DOT":0.00011735,"MEAN_MOTION_DDOT":0}]
